[{"OBJECT_NAME":"OBJECT H","OBJECT_ID":"2025-055H","EPOCH":"2026-03-09T23:29:50.051328","MEAN_MOTION":15.30330066,"ECCENTRICITY":0.00075967,"INCLINATION":97.636,"RA_OF_ASC_NODE":211.9572,"ARG_OF_PERICENTER":140.4354,"MEAN_ANOMALY":219.7441,"EPHEMERIS_TYPE":0,"CLASSIFICATION_TYPE":"U","NORAD_CAT_ID":63298,"ELEMENT_SET_NO":999,"REV_AT_EPOCH":5423,"BSTAR":0.0015582864,"MEAN_MOTION_DOT":0.00045901,"MEAN_MOTION_DDOT":0},{"OBJECT_NAME":"STARLINK-34149","OBJECT_ID":"2025-111T","EPOCH":"2026-03-09T00:49:36.191424","MEAN_MOTION":15.27611973,"ECCENTRICITY":0.00020155,"INCLINATION":43.0106,"RA_OF_ASC_NODE":81.5356,"ARG_OF_PERICENTER":297.0909,"MEAN_ANOMALY":62.9737,"EPHEMERIS_TYPE":0,"CLASSIFICATION_TYPE":"U","NORAD_CAT_ID":64140,"ELEMENT_SET_NO":999,"REV_AT_EPOCH":4536,"BSTAR":0.001792964,"MEAN_MOTION_DOT":0.00049457,"MEAN_MOTION_DDOT":0}]
